[{"OBJECT_NAME":"STARLINK-5822","OBJECT_ID":"2023-088S","EPOCH":"2026-03-09T19:02:13.298208","MEAN_MOTION":15.02535993,"ECCENTRICITY":0.00012372,"INCLINATION":43.003,"RA_OF_ASC_NODE":107.0455,"ARG_OF_PERICENTER":269.5998,"MEAN_ANOMALY":90.4703,"EPHEMERIS_TYPE":0,"CLASSIFICATION_TYPE":"U","NORAD_CAT_ID":57064,"ELEMENT_SET_NO":999,"REV_AT_EPOCH":14940,"BSTAR":6.4724725e-5,"MEAN_MOTION_DOT":6.71e-6,"MEAN_MOTION_DDOT":0},{"OBJECT_NAME":"SL-8 DEB","OBJECT_ID":"1965-020E","EPOCH":"2026-03-09T21:09:43.637184","MEAN_MOTION":13.87340604,"ECCENTRICITY":0.05255409,"INCLINATION":56.0761,"RA_OF_ASC_NODE":307.1304,"ARG_OF_PERICENTER":335.346,"MEAN_ANOMALY":22.319,"EPHEMERIS_TYPE":0,"CLASSIFICATION_TYPE":"U","NORAD_CAT_ID":1335,"ELEMENT_SET_NO":999,"REV_AT_EPOCH":99620,"BSTAR":0.0005831786,"MEAN_MOTION_DOT":1.917e-5,"MEAN_MOTION_DDOT":0}]
